ONEWEB-0210             
1 48787U 21045W   25226.56497631  .00000180  00000+0  44286-3 0  9999
2 48787  87.9080 320.3296 0002354  83.2418 276.8980 13.15548712204006
ONEWEB-0214             
1 48788U 21045X   25226.72581802  .00000111  00000+0  26064-3 0  9990
2 48788  87.9078 320.2861 0002302  90.5798 269.5596 13.15550031203992
ONEWEB-0221             
1 48789U 21045Y   25226.73294481  .00000028  00000+0  41092-4 0  9992
2 48789  87.9070 320.3128 0001910  91.7198 268.4151 13.15548413204080
ONEWEB-0213             
1 48790U 21045Z   25226.49367504  .00000152  00000+0  37032-3 0  9990
2 48790  87.9076 320.3680 0002005  90.6444 269.4916 13.15548537204110
ONEWEB-0212             
1 48791U 21045AA  25226.54674556  .00000126  00000+0  29967-3 0  9994
2 48791  87.9073 320.3395 0001893  99.4057 260.7287 13.15551122204111
ONEWEB-0227             
1 48792U 21045AB  25226.69806560  .00000116  00000+0  27293-3 0  9992
2 48792  87.9070 320.3291 0001879  94.6950 265.4395 13.15549469204086
ONEWEB-0226             
1 48793U 21045AC  25226.53962414 -.00000183  00000+0 -52078-3 0  9992
2 48793  87.9083 320.3658 0002115  89.2427 270.8946 13.15543950204037
ONEWEB-0224             
1 48794U 21045AD  25226.65528264  .00001431  00000+0  37661-2 0  9992
2 48794  87.9078 320.3794 0001060  84.8036 275.3215 13.15539799203975
